[{"OBJECT_NAME":"STARLINK-35048","OBJECT_ID":"2025-184P","EPOCH":"2026-03-09T17:04:57.766944","MEAN_MOTION":15.05648721,"ECCENTRICITY":4.383e-5,"INCLINATION":97.6025,"RA_OF_ASC_NODE":122.6743,"ARG_OF_PERICENTER":118.8097,"MEAN_ANOMALY":241.3173,"EPHEMERIS_TYPE":0,"CLASSIFICATION_TYPE":"U","NORAD_CAT_ID":65286,"ELEMENT_SET_NO":999,"REV_AT_EPOCH":3125,"BSTAR":8.4130699e-5,"MEAN_MOTION_DOT":1.153e-5,"MEAN_MOTION_DDOT":0},{"OBJECT_NAME":"CZ-2C DEB","OBJECT_ID":"2014-014C","EPOCH":"2026-03-09T21:03:10.213920","MEAN_MOTION":14.96114302,"ECCENTRICITY":0.00460916,"INCLINATION":98.2261,"RA_OF_ASC_NODE":46.6653,"ARG_OF_PERICENTER":297.3827,"MEAN_ANOMALY":62.2706,"EPHEMERIS_TYPE":0,"CLASSIFICATION_TYPE":"U","NORAD_CAT_ID":39626,"ELEMENT_SET_NO":999,"REV_AT_EPOCH":63530,"BSTAR":0.002211971,"MEAN_MOTION_DOT":0.00025431,"MEAN_MOTION_DDOT":0}]
